INTELSAT 30 (IS-30)     
1 40271U 14062A   26087.52589995 -.00000170  00000+0  00000+0 0  9999
2 40271   0.0189 127.4402 0001156   8.5300 144.2342  1.00270957  5986
DIRECTV 14              
1 40333U 14078B   26087.52511994  .00000000  00000+0  00000+0 0  9990
2 40333   0.0201 160.0672 0000406 340.2955 135.3862  1.00267745 41238
DIRECTV 15              
1 40663U 15026A   26087.51086254 -.00000122  00000+0  00000+0 0  9991
2 40663   0.0299  95.7603 0000550 101.1650  70.0262  1.00272835 39653
SKY MEXICO-1            
1 40664U 15026B   26087.52910663  .00000000  00000+0  00000+0 0  9997
2 40664   0.0236 187.2326 0002351 200.4250 269.9742  1.00269459 39643
INTELSAT 34 (IS-34)     
1 40874U 15039A   26087.41350201 -.00000305  00000+0  00000+0 0  9997
2 40874   0.0201 265.7066 0000352 116.1591 257.3304  1.00281844 38816
INTELSAT 31 (IS-31)     
1 41581U 16035A   26087.52589995 -.00000171  00000+0  00000+0 0  9997
2 41581   0.0207 231.8650 0001995  20.9799  27.3607  1.00272437 35879
INTELSAT 36 (IS-36)     
1 41747U 16053A   26087.55831343  .00000000  00000+0  00000+0 0  9991
2 41747   0.0141 171.0444 0001510 154.0437 130.3923  1.00269428 35149
INTELSAT 32E (IS-32E)   
1 41945U 17007B   26087.42408618  .00000000  00000+0  00000+0 0  9992
2 41945   0.0239 172.2776 0001154 243.5388 239.5372  1.00295859 33416
INTELSAT 35E (IS-35E)   
1 42818U 17041A   26087.46662578  .00000000  00000+0  00000+0 0  9991
2 42818   0.0266 190.4328 0002178 173.9935 314.9446  1.00268686 32004
INTELSAT 37E (IS-37E)   
1 42950U 17059A   26087.37336590  .00000000  00000+0  00000+0 0  9999
2 42950   0.0236 176.3104 0001988 193.8730 292.0290  1.00268923 31258
AZERSPACE 2 (IS-38)     
1 43632U 18074A   26087.19717262  .00000000  00000+0  00000+0 0  9994
2 43632   0.0236 182.1500 0001453 181.9838 297.5867  1.00270621 27630
HORIZONS-3E             
1 43633U 18074B   26087.58030692 -.00000050  00000+0  00000+0 0  9999
2 43633   0.0164   2.9179 0000996 312.5487 248.4263  1.00271469 27530
AT&T T-16               
1 44333U 19034A   26087.52477327 -.00000135  00000+0  00000+0 0  9992
2 44333   0.0216 105.5526 0001128  87.0557  81.3822  1.00270522 24825
INTELSAT 39 (IS-39)     
1 44476U 19049B   26087.61821074  .00000000  00000+0  00000+0 0  9998
2 44476   0.0238 181.2748 0000339  37.5247 251.7380  1.00269444 24321
GALAXY 30 (G-30)        
1 46114U 20056C   26087.52000659  .00000000  00000+0  00000+0 0  9997
2 46114   0.0233 174.0786 0002163 206.5221 227.5339  1.00270163 20484
GALAXY 33 (G-33)        
1 54026U 22128A   26087.51642039  .00000060  00000+0  00000+0 0  9999
2 54026   0.0271  84.1404 0001884 270.4782 244.2015  1.00270179 12931
GALAXY 34 (G-34)        
1 54027U 22128B   26087.51642039  .00000000  00000+0  00000+0 0  9994
2 54027   0.0198 170.9941 0001484 190.3331 241.5926  1.00268357 13102
