[{"OBJECT_NAME":"INTELSAT 30 (IS-30)","OBJECT_ID":"2014-062A","EPOCH":"2026-03-28T12:37:17.755680","MEAN_MOTION":1.00270957,"ECCENTRICITY":0.00011567,"INCLINATION":0.0189,"RA_OF_ASC_NODE":127.4402,"ARG_OF_PERICENTER":8.53,"MEAN_ANOMALY":144.2342,"EPHEMERIS_TYPE":0,"CLASSIFICATION_TYPE":"U","NORAD_CAT_ID":40271,"ELEMENT_SET_NO":999,"REV_AT_EPOCH":598,"BSTAR":0,"MEAN_MOTION_DOT":-1.7e-6,"MEAN_MOTION_DDOT":0},{"OBJECT_NAME":"DIRECTV 14","OBJECT_ID":"2014-078B","EPOCH":"2026-03-28T12:36:10.362816","MEAN_MOTION":1.00267745,"ECCENTRICITY":4.062e-5,"INCLINATION":0.0201,"RA_OF_ASC_NODE":160.0672,"ARG_OF_PERICENTER":340.2955,"MEAN_ANOMALY":135.3862,"EPHEMERIS_TYPE":0,"CLASSIFICATION_TYPE":"U","NORAD_CAT_ID":40333,"ELEMENT_SET_NO":999,"REV_AT_EPOCH":4123,"BSTAR":0,"MEAN_MOTION_DOT":0,"MEAN_MOTION_DDOT":0},{"OBJECT_NAME":"DIRECTV 15","OBJECT_ID":"2015-026A","EPOCH":"2026-03-28T12:15:38.523456","MEAN_MOTION":1.00272835,"ECCENTRICITY":5.5e-5,"INCLINATION":0.0299,"RA_OF_ASC_NODE":95.7603,"ARG_OF_PERICENTER":101.165,"MEAN_ANOMALY":70.0262,"EPHEMERIS_TYPE":0,"CLASSIFICATION_TYPE":"U","NORAD_CAT_ID":40663,"ELEMENT_SET_NO":999,"REV_AT_EPOCH":3965,"BSTAR":0,"MEAN_MOTION_DOT":-1.22e-6,"MEAN_MOTION_DDOT":0},{"OBJECT_NAME":"SKY MEXICO-1","OBJECT_ID":"2015-026B","EPOCH":"2026-03-28T12:41:54.812832","MEAN_MOTION":1.00269459,"ECCENTRICITY":0.00023518,"INCLINATION":0.0236,"RA_OF_ASC_NODE":187.2326,"ARG_OF_PERICENTER":200.425,"MEAN_ANOMALY":269.9742,"EPHEMERIS_TYPE":0,"CLASSIFICATION_TYPE":"U","NORAD_CAT_ID":40664,"ELEMENT_SET_NO":999,"REV_AT_EPOCH":3964,"BSTAR":0,"MEAN_MOTION_DOT":0,"MEAN_MOTION_DDOT":0},{"OBJECT_NAME":"INTELSAT 34 (IS-34)","OBJECT_ID":"2015-039A","EPOCH":"2026-03-28T09:55:26.573664","MEAN_MOTION":1.00281844,"ECCENTRICITY":3.527e-5,"INCLINATION":0.0201,"RA_OF_ASC_NODE":265.7066,"ARG_OF_PERICENTER":116.1591,"MEAN_ANOMALY":257.3304,"EPHEMERIS_TYPE":0,"CLASSIFICATION_TYPE":"U","NORAD_CAT_ID":40874,"ELEMENT_SET_NO":999,"REV_AT_EPOCH":3881,"BSTAR":0,"MEAN_MOTION_DOT":-3.05e-6,"MEAN_MOTION_DDOT":0},{"OBJECT_NAME":"INTELSAT 31 (IS-31)","OBJECT_ID":"2016-035A","EPOCH":"2026-03-28T12:37:17.755680","MEAN_MOTION":1.00272437,"ECCENTRICITY":0.0001995,"INCLINATION":0.0207,"RA_OF_ASC_NODE":231.865,"ARG_OF_PERICENTER":20.9799,"MEAN_ANOMALY":27.3607,"EPHEMERIS_TYPE":0,"CLASSIFICATION_TYPE":"U","NORAD_CAT_ID":41581,"ELEMENT_SET_NO":999,"REV_AT_EPOCH":3587,"BSTAR":0,"MEAN_MOTION_DOT":-1.71e-6,"MEAN_MOTION_DDOT":0},{"OBJECT_NAME":"INTELSAT 36 (IS-36)","OBJECT_ID":"2016-053A","EPOCH":"2026-03-28T13:23:58.280352","MEAN_MOTION":1.00269428,"ECCENTRICITY":0.00015109,"INCLINATION":0.0141,"RA_OF_ASC_NODE":171.0444,"ARG_OF_PERICENTER":154.0437,"MEAN_ANOMALY":130.3923,"EPHEMERIS_TYPE":0,"CLASSIFICATION_TYPE":"U","NORAD_CAT_ID":41747,"ELEMENT_SET_NO":999,"REV_AT_EPOCH":3514,"BSTAR":0,"MEAN_MOTION_DOT":0,"MEAN_MOTION_DDOT":0},{"OBJECT_NAME":"INTELSAT 32E (IS-32E)","OBJECT_ID":"2017-007B","EPOCH":"2026-03-28T10:10:41.045952","MEAN_MOTION":1.00295859,"ECCENTRICITY":0.00011546,"INCLINATION":0.0239,"RA_OF_ASC_NODE":172.2776,"ARG_OF_PERICENTER":243.5388,"MEAN_ANOMALY":239.5372,"EPHEMERIS_TYPE":0,"CLASSIFICATION_TYPE":"U","NORAD_CAT_ID":41945,"ELEMENT_SET_NO":999,"REV_AT_EPOCH":3341,"BSTAR":0,"MEAN_MOTION_DOT":0,"MEAN_MOTION_DDOT":0},{"OBJECT_NAME":"INTELSAT 35E (IS-35E)","OBJECT_ID":"2017-041A","EPOCH":"2026-03-28T11:11:56.467392","MEAN_MOTION":1.00268686,"ECCENTRICITY":0.0002178,"INCLINATION":0.0266,"RA_OF_ASC_NODE":190.4328,"ARG_OF_PERICENTER":173.9935,"MEAN_ANOMALY":314.9446,"EPHEMERIS_TYPE":0,"CLASSIFICATION_TYPE":"U","NORAD_CAT_ID":42818,"ELEMENT_SET_NO":999,"REV_AT_EPOCH":3200,"BSTAR":0,"MEAN_MOTION_DOT":0,"MEAN_MOTION_DDOT":0},{"OBJECT_NAME":"INTELSAT 37E (IS-37E)","OBJECT_ID":"2017-059A","EPOCH":"2026-03-28T08:57:38.813760","MEAN_MOTION":1.00268923,"ECCENTRICITY":0.0001988,"INCLINATION":0.0236,"RA_OF_ASC_NODE":176.3104,"ARG_OF_PERICENTER":193.873,"MEAN_ANOMALY":292.029,"EPHEMERIS_TYPE":0,"CLASSIFICATION_TYPE":"U","NORAD_CAT_ID":42950,"ELEMENT_SET_NO":999,"REV_AT_EPOCH":3125,"BSTAR":0,"MEAN_MOTION_DOT":0,"MEAN_MOTION_DDOT":0},{"OBJECT_NAME":"AZERSPACE 2 (IS-38)","OBJECT_ID":"2018-074A","EPOCH":"2026-03-28T04:43:55.714368","MEAN_MOTION":1.00270621,"ECCENTRICITY":0.0001453,"INCLINATION":0.0236,"RA_OF_ASC_NODE":182.15,"ARG_OF_PERICENTER":181.9838,"MEAN_ANOMALY":297.5867,"EPHEMERIS_TYPE":0,"CLASSIFICATION_TYPE":"U","NORAD_CAT_ID":43632,"ELEMENT_SET_NO":999,"REV_AT_EPOCH":2763,"BSTAR":0,"MEAN_MOTION_DOT":0,"MEAN_MOTION_DDOT":0},{"OBJECT_NAME":"HORIZONS-3E","OBJECT_ID":"2018-074B","EPOCH":"2026-03-28T13:55:38.517888","MEAN_MOTION":1.00271469,"ECCENTRICITY":9.963e-5,"INCLINATION":0.0164,"RA_OF_ASC_NODE":2.9179,"ARG_OF_PERICENTER":312.5487,"MEAN_ANOMALY":248.4263,"EPHEMERIS_TYPE":0,"CLASSIFICATION_TYPE":"U","NORAD_CAT_ID":43633,"ELEMENT_SET_NO":999,"REV_AT_EPOCH":2753,"BSTAR":0,"MEAN_MOTION_DOT":-5.0e-7,"MEAN_MOTION_DDOT":0},{"OBJECT_NAME":"AT&T T-16","OBJECT_ID":"2019-034A","EPOCH":"2026-03-28T12:35:40.410528","MEAN_MOTION":1.00270522,"ECCENTRICITY":0.00011289,"INCLINATION":0.0216,"RA_OF_ASC_NODE":105.5526,"ARG_OF_PERICENTER":87.0557,"MEAN_ANOMALY":81.3822,"EPHEMERIS_TYPE":0,"CLASSIFICATION_TYPE":"U","NORAD_CAT_ID":44333,"ELEMENT_SET_NO":999,"REV_AT_EPOCH":2482,"BSTAR":0,"MEAN_MOTION_DOT":-1.35e-6,"MEAN_MOTION_DDOT":0},{"OBJECT_NAME":"INTELSAT 39 (IS-39)","OBJECT_ID":"2019-049B","EPOCH":"2026-03-28T14:50:13.407936","MEAN_MOTION":1.00269444,"ECCENTRICITY":3.397e-5,"INCLINATION":0.0238,"RA_OF_ASC_NODE":181.2748,"ARG_OF_PERICENTER":37.5247,"MEAN_ANOMALY":251.738,"EPHEMERIS_TYPE":0,"CLASSIFICATION_TYPE":"U","NORAD_CAT_ID":44476,"ELEMENT_SET_NO":999,"REV_AT_EPOCH":2432,"BSTAR":0,"MEAN_MOTION_DOT":0,"MEAN_MOTION_DDOT":0},{"OBJECT_NAME":"GALAXY 30 (G-30)","OBJECT_ID":"2020-056C","EPOCH":"2026-03-28T12:28:48.569376","MEAN_MOTION":1.00270163,"ECCENTRICITY":0.00021631,"INCLINATION":0.0233,"RA_OF_ASC_NODE":174.0786,"ARG_OF_PERICENTER":206.5221,"MEAN_ANOMALY":227.5339,"EPHEMERIS_TYPE":0,"CLASSIFICATION_TYPE":"U","NORAD_CAT_ID":46114,"ELEMENT_SET_NO":999,"REV_AT_EPOCH":2048,"BSTAR":0,"MEAN_MOTION_DOT":0,"MEAN_MOTION_DDOT":0},{"OBJECT_NAME":"GALAXY 33 (G-33)","OBJECT_ID":"2022-128A","EPOCH":"2026-03-28T12:23:38.721696","MEAN_MOTION":1.00270179,"ECCENTRICITY":0.0001884,"INCLINATION":0.0271,"RA_OF_ASC_NODE":84.1404,"ARG_OF_PERICENTER":270.4782,"MEAN_ANOMALY":244.2015,"EPHEMERIS_TYPE":0,"CLASSIFICATION_TYPE":"U","NORAD_CAT_ID":54026,"ELEMENT_SET_NO":999,"REV_AT_EPOCH":1293,"BSTAR":0,"MEAN_MOTION_DOT":6.0e-7,"MEAN_MOTION_DDOT":0},{"OBJECT_NAME":"GALAXY 34 (G-34)","OBJECT_ID":"2022-128B","EPOCH":"2026-03-28T12:23:38.721696","MEAN_MOTION":1.00268357,"ECCENTRICITY":0.0001484,"INCLINATION":0.0198,"RA_OF_ASC_NODE":170.9941,"ARG_OF_PERICENTER":190.3331,"MEAN_ANOMALY":241.5926,"EPHEMERIS_TYPE":0,"CLASSIFICATION_TYPE":"U","NORAD_CAT_ID":54027,"ELEMENT_SET_NO":999,"REV_AT_EPOCH":1310,"BSTAR":0,"MEAN_MOTION_DOT":0,"MEAN_MOTION_DDOT":0}]
